ARABSAT-7B (BADR-8)     
1 56757U 23075A   25045.83297537  .00000143  00000+0  00000+0 0  9993
2 56757   0.0747  28.1418 0005333 318.2748 124.5147  1.00271071  6235
NVS-01 (IRNSS-1J)       
1 56759U 23076A   25046.51992402 -.00000337  00000+0  00000+0 0  9991
2 56759   3.3742 260.3960 0007878  19.7866 182.2352  1.00271687  6232
NUSANTARA TIGA (SATRIA) 
1 57045U 23086A   25045.57101185 -.00000238  00000+0  00000+0 0  9996
2 57045   0.0302 308.3873 0005964  10.6020 177.3720  1.00270981  4877
H2SAT (HEINRICH HERTZ)  
1 57213U 23093A   25045.83045583  .00000086  00000+0  00000+0 0  9999
2 57213   0.0139 102.4309 0000955 296.1163  58.7223  1.00269199  6032
SYRACUSE 4B             
1 57214U 23093B   25046.11350560 -.00000055  00000+0  00000+0 0  9993
2 57214   0.0131 104.9569 0000336 279.9157 154.7548  1.00271445  2079
JUPITER 3 (ECHOSTAR 24) 
1 57479U 23108A   25044.86401190 -.00000155  00000+0  00000+0 0  9990
2 57479   0.0154  97.1316 0001448 226.3686  36.4531  1.00271651  5753
GALAXY 37 (G-37)        
1 57493U 23112A   25046.59274494  .00000050  00000+0  00000+0 0  9991
2 57493   0.0216 102.5309 0002054 234.0057 255.6891  1.00271415  5665
LUDI TANCE-4 01A        
1 57624U 23120A   25045.79040567 -.00000185  00000+0  00000+0 0  9999
2 57624  15.4971 205.9125 0004936 119.7063 193.4267  1.00265343  5658
TJS-10                  
1 58204U 23169A   25046.63308527  .00000010  00000+0  00000+0 0  9990
2 58204   1.2849  86.4298 0005467 197.4280 263.5982  1.00277254  4664
ZHONGXING-6E            
1 58253U 23172A   25046.51309940 -.00000361  00000+0  00000+0 0  9995
2 58253   0.0428 288.0375 0003043  21.7745 136.1446  1.00271147  4774
YAOGAN-41               
1 58582U 23197A   25046.56269875 -.00000361  00000+0  00000+0 0  9994
2 58582   4.0849 308.3441 0011463 172.9240 350.2472  1.00265887  4440
OVZON-3                 
1 58698U 24003A   25045.83966515  .00000049  00000+0  00000+0 0  9995
2 58698   0.0105 155.8365 0001801 192.8977 158.3199  1.00274053  4349
INSAT-3DS               
1 58990U 24033A   25046.63346903 -.00000155  00000+0  00000+0 0  9994
2 58990   0.0942 268.4409 0001928  74.6617 112.8765  1.00271013 42182
MERAH PUTIH 2           
1 58995U 24035A   25046.50922735 -.00000357  00000+0  00000+0 0  9994
2 58995   0.0125 102.1511 0000167 102.7813 237.0694  1.00273256  3700
TJS-11                  
1 59020U 24037A   25046.62450425 -.00000365  00000+0  00000+0 0  9990
2 59020   4.9186 322.4812 0005054  23.1348 145.3235  1.00268037  3703
HULIANWAN GAOGUI-01 (H*)
1 59069U 24040A   25045.83453921  .00000154  00000+0  00000+0 0  9998
2 59069   0.0295  49.0227 0008677 284.7240 145.4463  1.00276206  2447
EUTELSAT 36D            
1 59346U 24059A   25045.83497361  .00000154  00000+0  00000+0 0  9992
2 59346   0.0191 119.8074 0000501 236.5006 125.2282  1.00272871  3258
PAKSAT-MM1              
1 59915U 24104A   25045.01364060  .00000149  00000+0  00000+0 0  9998
2 59915   0.0227 116.4712 0001760 217.7828 213.0819  1.00270259  2634
GOES 19                 
1 60133U 24119A   25045.59577277 -.00000185  00000+0  00000+0 0  9998
2 60133   0.0028 320.2117 0002106  26.9085 282.6895  1.00272396  2417
ZHONGXING-3A            
1 60179U 24122A   25045.68223308 -.00000316  00000+0  00000+0 0  9991
2 60179   0.0323 106.3143 0001735 183.9990 201.7675  1.00271084  2425
TURKSAT 6A              
1 60233U 24127A   25045.83610306  .00000144  00000+0  00000+0 0  9990
2 60233   0.0590 241.8320 0003069  41.3879 204.8198  1.00272404  2138
HULIANWAN GAOGUI-02 (H*)
1 60327U 24135A   25045.58127880 -.00000176  00000+0  00000+0 0  9991
2 60327   0.0229 150.0432 0002618 113.1763 244.0207  1.00270772  2138
